NORAD_CAT_ID,OBJECT_NAME,OBJECT_TYPE,EPOCH,MEAN_MOTION,ECCENTRICITY,INCLINATION,RA_OF_ASC_NODE,ARG_OF_PERICENTER,MEAN_ANOMALY,BSTAR,MEAN_MOTION_DOT,MEAN_MOTION_DDOT,TLE_LINE0,TLE_LINE1,TLE_LINE2,SEMIMAJOR_AXIS,PERIOD,APOGEE,PERIGEE,DECAYED
50839.0,STARLINK-3320,PAYLOAD,2022-04-24 06:00:00,15.0881079,0.0002149,53.2156,53.2725,32.5084,243.2345,0.0028249,0.00044922,0.0,0 STARLINK-3320,1 50839U 22001AN  22114.25001157  .00044922  00000-0  28249-2 0  9999,2 50839  53.2156  53.2725 0002149  32.5084 243.2345 15.08810790 17854,6917.97,95.439,541.321,538.3480000000002,0.0
50839.0,STARLINK-3320,PAYLOAD,2022-04-24 14:00:01,15.0884849,0.0001957,53.2154,51.7744,35.3536,251.9736,-0.00087431,-0.00014179,0.0,0 STARLINK-3320,1 50839U 22001AN  22114.58334491 -.00014179  00000-0 -87431-3 0  9997,2 50839  53.2154  51.7744 0001957  35.3536 251.9736 15.08848490  3599,6917.854,95.437,541.073,538.366,0.0
50839.0,STARLINK-3320,PAYLOAD,2022-04-24 22:00:00,15.08843611,0.0001989,53.2155,50.2782,39.2288,259.6909,-0.0009937,-0.0001607,0.0,0 STARLINK-3320,1 50839U 22001AN  22114.91667824 -.00016070  00000-0 -99370-3 0  9990,2 50839  53.2155  50.2782 0001989  39.2288 259.6909 15.08843611 17950,6917.869000000002,95.437,541.11,538.3580000000002,0.0
50839.0,STARLINK-3320,PAYLOAD,2022-04-25 14:00:01,15.08813247,0.0001965,53.2151,47.285,37.3555,284.7359,0.0016318,0.00025759,0.0,0 STARLINK-3320,1 50839U 22001AN  22115.58334491  .00025759  00000-0  16318-2 0  9997,2 50839  53.2151  47.2850 0001965  37.3555 284.7359 15.08813247  3605,6917.962,95.439,541.187,538.4680000000002,0.0
50839.0,STARLINK-3320,PAYLOAD,2022-04-25 22:00:00,15.08861257,0.0001961,53.2153,45.7889,38.8383,294.8225,-0.0020449,-0.00032705,0.0,0 STARLINK-3320,1 50839U 22001AN  22115.91667824 -.00032705  00000-0 -20449-2 0  9994,2 50839  53.2153  45.7889 0001961  38.8383 294.8225 15.08861257 18102,6917.815,95.436,541.0369999999998,538.3240000000002,0.0
50839.0,STARLINK-3320,PAYLOAD,2022-04-26 14:00:01,15.08839182,0.0001958,53.2152,42.7955,37.2085,319.7174,8.4586e-05,1.058e-05,0.0,0 STARLINK-3320,1 50839U 22001AN  22116.58335648  .00001058  00000-0  84586-4 0  9993,2 50839  53.2152  42.7955 0001958  37.2085 319.7174 15.08839182 18203,6917.8830000000025,95.438,541.102,538.393,0.0
50839.0,STARLINK-3320,PAYLOAD,2022-04-26 22:00:00,15.08849678,0.0002043,53.2154,41.2997,40.1272,328.3288,-0.0013018,-0.00020953,0.0,0 STARLINK-3320,1 50839U 22001AN  22116.91667824 -.00020953  00000-0 -13018-2 0  9991,2 50839  53.2154  41.2997 0002043  40.1272 328.3288 15.08849678  3579,6917.851,95.437,541.129,538.302,0.0
50839.0,STARLINK-3320,PAYLOAD,2022-04-27 14:00:01,15.08810445,0.0001999,53.2157,38.3062,38.1027,353.5946,0.0028096,0.00044675,0.0,0 STARLINK-3320,1 50839U 22001AN  22117.58335648  .00044675  00000-0  28096-2 0  9998,2 50839  53.2157  38.3062 0001999  38.1027 353.5946 15.08810445  3601,6917.971,95.439,541.219,538.453,0.0
50839.0,STARLINK-3320,PAYLOAD,2022-04-27 22:00:00,15.08869837,0.0002065,53.2161,36.8106,38.3588,4.852,-0.0036495,-0.00057952,0.0,0 STARLINK-3320,1 50839U 22001AN  22117.91667824 -.00057952  00000-0 -36495-2 0  9995,2 50839  53.2161  36.8106 0002065  38.3588   4.8520 15.08869837 18404,6917.7890000000025,95.436,541.0830000000002,538.226,0.0
50839.0,STARLINK-3320,PAYLOAD,2022-04-28 06:00:00,15.08827107,0.0002154,53.216,35.3153,33.1521,21.6843,0.0041291,0.0006602,0.0,0 STARLINK-3320,1 50839U 22001AN  22118.25001157  .00066020  00000-0  41291-2 0  9998,2 50839  53.2160  35.3153 0002154  33.1521  21.6843 15.08827107 18452,6917.92,95.438,541.275,538.295,0.0
50839.0,STARLINK-3320,PAYLOAD,2022-04-28 14:00:01,15.08854585,0.0001948,53.2164,33.817,36.4842,29.9668,0.00044819,6.855e-05,0.0,0 STARLINK-3320,1 50839U 22001AN  22118.58334491  .00006855  00000-0  44819-3 0  9994,2 50839  53.2164  33.8170 0001948  36.4842  29.9668 15.08854585  3607,6917.8359999999975,95.437,541.048,538.3530000000002,0.0
50839.0,STARLINK-3320,PAYLOAD,2022-04-28 20:00:01,15.08873599,0.0001981,53.2167,32.695,38.5981,306.5598,-0.0019059,-0.00030521,0.0,0 STARLINK-3320,1 50839U 22001AN  22118.83334491 -.00030521  00000-0 -19059-2 0  9998,2 50839  53.2167  32.6950 0001981  38.5981 306.5598 15.08873599 18548,6917.778,95.435,541.013,538.2719999999998,0.0
50839.0,STARLINK-3320,PAYLOAD,2022-04-29 14:00:01,15.08799165,0.0001901,53.2168,29.32800000000001,33.9073,67.3549,0.0024649,0.00039115,0.0,0 STARLINK-3320,1 50839U 22001AN  22119.58334491  .00039115  00000-0  24649-2 0  9998,2 50839  53.2168  29.3280 0001901  33.9073  67.3549 15.08799165  3606,6918.005,95.44,541.185,538.555,0.0
50839.0,STARLINK-3320,PAYLOAD,2022-04-29 22:00:00,15.08825898,0.0002049,53.217,27.8327,36.2822,76.5433,-0.0011258,-0.00018154,0.0,0 STARLINK-3320,1 50839U 22001AN  22119.91667824 -.00018154  00000-0 -11258-2 0  9998,2 50839  53.2170  27.8327 0002049  36.2822  76.5433 15.08825898 18700,6917.9230000000025,95.438,541.206,538.371,0.0
50839.0,STARLINK-3320,PAYLOAD,2022-04-30 14:00:01,15.08786223,0.0002029,53.2168,24.8392,40.0534,95.9231,0.0036886,0.0005882,0.0,0 STARLINK-3320,1 50839U 22001AN  22120.58334491  .00058820  00000-0  36886-2 0  9990,2 50839  53.2168  24.8392 0002029  40.0534  95.9231 15.08786223  3586,6918.045,95.441,541.313,538.506,0.0
50839.0,STARLINK-3320,PAYLOAD,2022-04-30 22:00:00,15.08848506,0.0002171,53.2168,23.3441,39.7245,107.8058,-0.0027314,-0.00043508,0.0,0 STARLINK-3320,1 50839U 22001AN  22120.91667824 -.00043508  00000-0 -27314-2 0  9991,2 50839  53.2168  23.3441 0002171  39.7245 107.8058 15.08848506 18856,6917.854,95.437,541.221,538.2180000000002,0.0
50839.0,STARLINK-3320,PAYLOAD,2022-05-01 14:00:01,15.08802126,0.0001983,53.2164,20.3504,40.1197,130.5732,0.0035603,0.00056772,0.0,0 STARLINK-3320,1 50839U 22001AN  22121.58334491  .00056772  00000-0  35603-2 0  9991,2 50839  53.2164  20.3504 0001983  40.1197 130.5732 15.08802126 18952,6917.996,95.44,541.2330000000002,538.489,0.0
50839.0,STARLINK-3320,PAYLOAD,2022-05-01 22:00:01,15.08846839,0.0002108,53.2164,18.8553,39.8205,142.5069,-0.00061778,-0.00010109,0.0,0 STARLINK-3320,1 50839U 22001AN  22121.91668981 -.00010109  00000-0 -61778-3 0  9991,2 50839  53.2164  18.8553 0002108  39.8205 142.5069 15.08846839  3604,6917.859,95.437,541.183,538.266,0.0
50839.0,STARLINK-3320,PAYLOAD,2022-05-02 06:00:00,15.08856121,0.0002197,53.2158,17.3593,36.8385,157.0175,-0.0017762,-0.00028459,0.0,0 STARLINK-3320,1 50839U 22001AN  22122.25001157 -.00028459  00000-0 -17762-2 0  9995,2 50839  53.2158  17.3593 0002197  36.8385 157.0175 15.08856121 19059,6917.831,95.437,541.216,538.1759999999998,0.0
50839.0,STARLINK-3320,PAYLOAD,2022-05-02 14:00:01,15.08808277,0.0001952,53.2157,15.8614,40.2923,165.1746,0.0032788,0.00052236,0.0,0 STARLINK-3320,1 50839U 22001AN  22122.58334491  .00052236  00000-0  32788-2 0  9994,2 50839  53.2157  15.8614 0001952  40.2923 165.1746 15.08808277  3595,6917.977,95.44,541.193,538.492,0.0
50839.0,STARLINK-3320,PAYLOAD,2022-05-02 22:00:01,15.08846938,0.0002099,53.2158,14.3664,39.2747,177.8332,-0.00063281,-0.00010347,0.0,0 STARLINK-3320,1 50839U 22001AN  22122.91668981 -.00010347  00000-0 -63281-3 0  9997,2 50839  53.2158  14.3664 0002099  39.2747 177.8332 15.08846938 19156,6917.859,95.437,541.1759999999998,538.2719999999998,0.0
50839.0,STARLINK-3320,PAYLOAD,2022-05-03 14:00:01,15.08810267,0.0001944,53.2152,11.3721,39.9175,200.335,0.0032341,0.00051518,0.0,0 STARLINK-3320,1 50839U 22001AN  22123.58334491  .00051518  00000-0  32341-2 0  9992,2 50839  53.2152  11.3721 0001944  39.9175 200.3350 15.08810267  3602,6917.971,95.439,541.181,538.491,0.0
50839.0,STARLINK-3320,PAYLOAD,2022-05-03 22:00:00,15.08848456,0.0002112,53.2153,9.8772,38.4447,213.3916,-0.00039789,-6.617e-05,0.0,0 STARLINK-3320,1 50839U 22001AN  22123.91667824 -.00006617  00000-0 -39789-3 0  9994,2 50839  53.2153   9.8772 0002112  38.4447 213.3916 15.08848456 19313,6917.855,95.437,541.181,538.258,0.0
50839.0,STARLINK-3320,PAYLOAD,2022-05-04 14:00:01,15.08819906,0.0001952,53.2151,6.8826,39.041,236.0233,0.0034625,0.0005522,0.0,0 STARLINK-3320,1 50839U 22001AN  22124.58334491  .00055220  00000-0  34625-2 0  9994,2 50839  53.2151   6.8826 0001952  39.0410 236.0233 15.08819906  3603,6917.941999999999,95.439,541.1569999999998,538.456,0.0
50839.0,STARLINK-3320,PAYLOAD,2022-05-04 20:00:01,15.08875671,0.0002045,53.2154,5.7614,37.8569,155.9568,-0.0031688,-0.00050417,0.0,0 STARLINK-3320,1 50839U 22001AN  22124.83335648 -.00050417  00000-0 -31688-2 0  9998,2 50839  53.2154   5.7614 0002045  37.8569 155.9568 15.08875671 19444,6917.771,95.435,541.0509999999998,538.222,0.0
50839.0,STARLINK-3320,PAYLOAD,2022-05-04 22:00:01,15.08870315,0.0002107,53.2153,5.3877,36.1016,250.6187,-0.0033852,-0.00053808,0.0,0 STARLINK-3320,1 50839U 22001AN  22124.91668981 -.00053808  00000-0 -33852-2 0  9998,2 50839  53.2153   5.3877 0002107  36.1016 250.6187 15.08870315  3609,6917.788000000001,95.436,541.11,538.195,0.0
50839.0,STARLINK-3320,PAYLOAD,2022-05-05 14:00:01,15.08805704,0.0002057,53.2156,2.393,40.3523,269.5135,0.0029341,0.00046674,0.0,0 STARLINK-3320,1 50839U 22001AN  22125.58334491  .00046674  00000-0  29341-2 0  9997,2 50839  53.2156   2.3930 0002057  40.3523 269.5135 15.08805704  3560,6917.985,95.44,541.273,538.427,0.0
50839.0,STARLINK-3320,PAYLOAD,2022-05-05 16:00:00,15.08820971,0.0002076,53.2158,2.0192,41.3792,1.3742,0.0018704,0.0002959,0.0,0 STARLINK-3320,1 50839U 22001AN  22125.66667824  .00029590  00000-0  18704-2 0  9994,2 50839  53.2158   2.0192 0002076  41.3792   1.3742 15.08820971 19576,6917.939,95.439,541.24,538.367,0.0
50839.0,STARLINK-3320,PAYLOAD,2022-05-05 22:00:00,15.08836531,0.0002248,53.2157,0.8983,38.3246,283.1164,-0.00012478,-2.274e-05,0.0,0 STARLINK-3320,1 50839U 22001AN  22125.91667824 -.00002274  00000-0 -12478-3 0  9997,2 50839  53.2157   0.8983 0002248  38.3246 283.1164 15.08836531  3592,6917.891,95.438,541.311,538.201,0.0
